STARLINK-35928          
1 66528U 25265N   25343.58335648 -.01699368  00000+0 -30905-1 0  9997
2 66528  43.0002  72.4280 0001416 286.8660 231.8523 15.51908030  4481
STARLINK-35933          
1 66529U 25265P   25343.58335648 -.01711711  00000+0 -31148-1 0  9995
2 66529  43.0000  72.4223 0001434 282.2168 238.4181 15.51915545  4482
STARLINK-35961          
1 66530U 25265Q   25343.58335648 -.01703588  00000+0 -30988-1 0  9991
2 66530  43.0001  72.4182 0001439 286.7155 235.8369 15.51910373  4482
STARLINK-35960          
1 66531U 25265R   25343.58335648 -.01690773  00000+0 -30738-1 0  9996
2 66531  43.0001  72.4120 0001116 289.4884 234.9799 15.51903867  4483
STARLINK-35914          
1 66532U 25265S   25343.58335648 -.01701777  00000+0 -30953-1 0  9993
2 66532  42.9997  72.4082 0001421 287.5428 238.8445 15.51908749  4480
STARLINK-35707          
1 66533U 25265T   25343.58335648 -.01706445  00000+0 -31045-1 0  9994
2 66533  42.9999  72.4033 0001372 286.5076 241.7971 15.51911622  4483
STARLINK-35976          
1 66534U 25265U   25343.58335648 -.01698982  00000+0 -30900-1 0  9990
2 66534  43.0002  72.3991 0001402 285.9500 244.2744 15.51905615  4483
STARLINK-35514          
1 66535U 25265V   25343.58335648 -.01698338  00000+0 -30884-1 0  9997
2 66535  43.0001  72.3942 0001253 286.5931 245.5444 15.51909263  4482
STARLINK-35640          
1 66536U 25265W   25343.58335648 -.01698948  00000+0 -30897-1 0  9999
2 66536  43.0001  72.3895 0001398 285.5428 248.5144 15.51907530  4463
STARLINK-35582          
1 66537U 25265X   25343.58335648 -.01701912  00000+0 -30954-1 0  9990
2 66537  43.0000  72.3847 0001222 281.1684 254.8014 15.51912130  4482
STARLINK-35577          
1 66538U 25265Y   25343.58335648 -.01709219  00000+0 -31098-1 0  9999
2 66538  43.0002  72.3795 0001346 284.3177 253.5716 15.51915103  4484
STARLINK-35697          
1 66539U 25265Z   25343.58335648 -.01704550  00000+0 -31004-1 0  9990
2 66539  43.0001  72.3744 0001304 283.4334 256.3697 15.51914485  4488
