CCSDS_OMM_VERS = 2.0
CREATION_DATE  = 
ORIGINATOR     = 

OBJECT_NAME    = STARLINK-35928
OBJECT_ID      = 2025-265N
CENTER_NAME    = EARTH
REF_FRAME      = TEME
TIME_SYSTEM    = UTC
MEAN_ELEMENT_THEORY = SGP/SGP4

EPOCH          = 2025-12-09T14:00:01.999872
MEAN_MOTION    = 15.51908030
ECCENTRICITY   = .00014161
INCLINATION    = 43.0002
RA_OF_ASC_NODE = 72.4280
ARG_OF_PERICENTER = 286.8660
MEAN_ANOMALY   = 231.8523

EPHEMERIS_TYPE = 0
CLASSIFICATION_TYPE = U
NORAD_CAT_ID   = 66528
ELEMENT_SET_NO = 999
REV_AT_EPOCH   = 448
BSTAR          = -.30905068E-1
MEAN_MOTION_DOT = -.1699368E-1
MEAN_MOTION_DDOT = 0

CCSDS_OMM_VERS = 2.0
CREATION_DATE  = 
ORIGINATOR     = 

OBJECT_NAME    = STARLINK-35933
OBJECT_ID      = 2025-265P
CENTER_NAME    = EARTH
REF_FRAME      = TEME
TIME_SYSTEM    = UTC
MEAN_ELEMENT_THEORY = SGP/SGP4

EPOCH          = 2025-12-09T14:00:01.999872
MEAN_MOTION    = 15.51915545
ECCENTRICITY   = .00014346
INCLINATION    = 43.0000
RA_OF_ASC_NODE = 72.4223
ARG_OF_PERICENTER = 282.2168
MEAN_ANOMALY   = 238.4181

EPHEMERIS_TYPE = 0
CLASSIFICATION_TYPE = U
NORAD_CAT_ID   = 66529
ELEMENT_SET_NO = 999
REV_AT_EPOCH   = 448
BSTAR          = -.31147603E-1
MEAN_MOTION_DOT = -.1711711E-1
MEAN_MOTION_DDOT = 0

CCSDS_OMM_VERS = 2.0
CREATION_DATE  = 
ORIGINATOR     = 

OBJECT_NAME    = STARLINK-35961
OBJECT_ID      = 2025-265Q
CENTER_NAME    = EARTH
REF_FRAME      = TEME
TIME_SYSTEM    = UTC
MEAN_ELEMENT_THEORY = SGP/SGP4

EPOCH          = 2025-12-09T14:00:01.999872
MEAN_MOTION    = 15.51910373
ECCENTRICITY   = .0001439
INCLINATION    = 43.0001
RA_OF_ASC_NODE = 72.4182
ARG_OF_PERICENTER = 286.7155
MEAN_ANOMALY   = 235.8369

EPHEMERIS_TYPE = 0
CLASSIFICATION_TYPE = U
NORAD_CAT_ID   = 66530
ELEMENT_SET_NO = 999
REV_AT_EPOCH   = 448
BSTAR          = -.30988043E-1
MEAN_MOTION_DOT = -.1703588E-1
MEAN_MOTION_DDOT = 0

CCSDS_OMM_VERS = 2.0
CREATION_DATE  = 
ORIGINATOR     = 

OBJECT_NAME    = STARLINK-35960
OBJECT_ID      = 2025-265R
CENTER_NAME    = EARTH
REF_FRAME      = TEME
TIME_SYSTEM    = UTC
MEAN_ELEMENT_THEORY = SGP/SGP4

EPOCH          = 2025-12-09T14:00:01.999872
MEAN_MOTION    = 15.51903867
ECCENTRICITY   = .00011161
INCLINATION    = 43.0001
RA_OF_ASC_NODE = 72.4120
ARG_OF_PERICENTER = 289.4884
MEAN_ANOMALY   = 234.9799

EPHEMERIS_TYPE = 0
CLASSIFICATION_TYPE = U
NORAD_CAT_ID   = 66531
ELEMENT_SET_NO = 999
REV_AT_EPOCH   = 448
BSTAR          = -.30738011E-1
MEAN_MOTION_DOT = -.1690773E-1
MEAN_MOTION_DDOT = 0

CCSDS_OMM_VERS = 2.0
CREATION_DATE  = 
ORIGINATOR     = 

OBJECT_NAME    = STARLINK-35914
OBJECT_ID      = 2025-265S
CENTER_NAME    = EARTH
REF_FRAME      = TEME
TIME_SYSTEM    = UTC
MEAN_ELEMENT_THEORY = SGP/SGP4

EPOCH          = 2025-12-09T14:00:01.999872
MEAN_MOTION    = 15.51908749
ECCENTRICITY   = .00014212
INCLINATION    = 42.9997
RA_OF_ASC_NODE = 72.4082
ARG_OF_PERICENTER = 287.5428
MEAN_ANOMALY   = 238.8445

EPHEMERIS_TYPE = 0
CLASSIFICATION_TYPE = U
NORAD_CAT_ID   = 66532
ELEMENT_SET_NO = 999
REV_AT_EPOCH   = 448
BSTAR          = -.3095321E-1
MEAN_MOTION_DOT = -.1701777E-1
MEAN_MOTION_DDOT = 0

CCSDS_OMM_VERS = 2.0
CREATION_DATE  = 
ORIGINATOR     = 

OBJECT_NAME    = STARLINK-35707
OBJECT_ID      = 2025-265T
CENTER_NAME    = EARTH
REF_FRAME      = TEME
TIME_SYSTEM    = UTC
MEAN_ELEMENT_THEORY = SGP/SGP4

EPOCH          = 2025-12-09T14:00:01.999872
MEAN_MOTION    = 15.51911622
ECCENTRICITY   = .00013729
INCLINATION    = 42.9999
RA_OF_ASC_NODE = 72.4033
ARG_OF_PERICENTER = 286.5076
MEAN_ANOMALY   = 241.7971

EPHEMERIS_TYPE = 0
CLASSIFICATION_TYPE = U
NORAD_CAT_ID   = 66533
ELEMENT_SET_NO = 999
REV_AT_EPOCH   = 448
BSTAR          = -.31045437E-1
MEAN_MOTION_DOT = -.1706445E-1
MEAN_MOTION_DDOT = 0

CCSDS_OMM_VERS = 2.0
CREATION_DATE  = 
ORIGINATOR     = 

OBJECT_NAME    = STARLINK-35976
OBJECT_ID      = 2025-265U
CENTER_NAME    = EARTH
REF_FRAME      = TEME
TIME_SYSTEM    = UTC
MEAN_ELEMENT_THEORY = SGP/SGP4

EPOCH          = 2025-12-09T14:00:01.999872
MEAN_MOTION    = 15.51905615
ECCENTRICITY   = .00014024
INCLINATION    = 43.0002
RA_OF_ASC_NODE = 72.3991
ARG_OF_PERICENTER = 285.9500
MEAN_ANOMALY   = 244.2744

EPHEMERIS_TYPE = 0
CLASSIFICATION_TYPE = U
NORAD_CAT_ID   = 66534
ELEMENT_SET_NO = 999
REV_AT_EPOCH   = 448
BSTAR          = -.30900077E-1
MEAN_MOTION_DOT = -.1698982E-1
MEAN_MOTION_DDOT = 0

CCSDS_OMM_VERS = 2.0
CREATION_DATE  = 
ORIGINATOR     = 

OBJECT_NAME    = STARLINK-35514
OBJECT_ID      = 2025-265V
CENTER_NAME    = EARTH
REF_FRAME      = TEME
TIME_SYSTEM    = UTC
MEAN_ELEMENT_THEORY = SGP/SGP4

EPOCH          = 2025-12-09T14:00:01.999872
MEAN_MOTION    = 15.51909263
ECCENTRICITY   = .00012537
INCLINATION    = 43.0001
RA_OF_ASC_NODE = 72.3942
ARG_OF_PERICENTER = 286.5931
MEAN_ANOMALY   = 245.5444

EPHEMERIS_TYPE = 0
CLASSIFICATION_TYPE = U
NORAD_CAT_ID   = 66535
ELEMENT_SET_NO = 999
REV_AT_EPOCH   = 448
BSTAR          = -.30884389E-1
MEAN_MOTION_DOT = -.1698338E-1
MEAN_MOTION_DDOT = 0

CCSDS_OMM_VERS = 2.0
CREATION_DATE  = 
ORIGINATOR     = 

OBJECT_NAME    = STARLINK-35640
OBJECT_ID      = 2025-265W
CENTER_NAME    = EARTH
REF_FRAME      = TEME
TIME_SYSTEM    = UTC
MEAN_ELEMENT_THEORY = SGP/SGP4

EPOCH          = 2025-12-09T14:00:01.999872
MEAN_MOTION    = 15.51907530
ECCENTRICITY   = .00013981
INCLINATION    = 43.0001
RA_OF_ASC_NODE = 72.3895
ARG_OF_PERICENTER = 285.5428
MEAN_ANOMALY   = 248.5144

EPHEMERIS_TYPE = 0
CLASSIFICATION_TYPE = U
NORAD_CAT_ID   = 66536
ELEMENT_SET_NO = 999
REV_AT_EPOCH   = 446
BSTAR          = -.30897271E-1
MEAN_MOTION_DOT = -.1698948E-1
MEAN_MOTION_DDOT = 0

CCSDS_OMM_VERS = 2.0
CREATION_DATE  = 
ORIGINATOR     = 

OBJECT_NAME    = STARLINK-35582
OBJECT_ID      = 2025-265X
CENTER_NAME    = EARTH
REF_FRAME      = TEME
TIME_SYSTEM    = UTC
MEAN_ELEMENT_THEORY = SGP/SGP4

EPOCH          = 2025-12-09T14:00:01.999872
MEAN_MOTION    = 15.51912130
ECCENTRICITY   = .00012228
INCLINATION    = 43.0000
RA_OF_ASC_NODE = 72.3847
ARG_OF_PERICENTER = 281.1684
MEAN_ANOMALY   = 254.8014

EPHEMERIS_TYPE = 0
CLASSIFICATION_TYPE = U
NORAD_CAT_ID   = 66537
ELEMENT_SET_NO = 999
REV_AT_EPOCH   = 448
BSTAR          = -.30954148E-1
MEAN_MOTION_DOT = -.1701912E-1
MEAN_MOTION_DDOT = 0

CCSDS_OMM_VERS = 2.0
CREATION_DATE  = 
ORIGINATOR     = 

OBJECT_NAME    = STARLINK-35577
OBJECT_ID      = 2025-265Y
CENTER_NAME    = EARTH
REF_FRAME      = TEME
TIME_SYSTEM    = UTC
MEAN_ELEMENT_THEORY = SGP/SGP4

EPOCH          = 2025-12-09T14:00:01.999872
MEAN_MOTION    = 15.51915103
ECCENTRICITY   = .00013461
INCLINATION    = 43.0002
RA_OF_ASC_NODE = 72.3795
ARG_OF_PERICENTER = 284.3177
MEAN_ANOMALY   = 253.5716

EPHEMERIS_TYPE = 0
CLASSIFICATION_TYPE = U
NORAD_CAT_ID   = 66538
ELEMENT_SET_NO = 999
REV_AT_EPOCH   = 448
BSTAR          = -.31098274E-1
MEAN_MOTION_DOT = -.1709219E-1
MEAN_MOTION_DDOT = 0

CCSDS_OMM_VERS = 2.0
CREATION_DATE  = 
ORIGINATOR     = 

OBJECT_NAME    = STARLINK-35697
OBJECT_ID      = 2025-265Z
CENTER_NAME    = EARTH
REF_FRAME      = TEME
TIME_SYSTEM    = UTC
MEAN_ELEMENT_THEORY = SGP/SGP4

EPOCH          = 2025-12-09T14:00:01.999872
MEAN_MOTION    = 15.51914485
ECCENTRICITY   = .00013046
INCLINATION    = 43.0001
RA_OF_ASC_NODE = 72.3744
ARG_OF_PERICENTER = 283.4334
MEAN_ANOMALY   = 256.3697

EPHEMERIS_TYPE = 0
CLASSIFICATION_TYPE = U
NORAD_CAT_ID   = 66539
ELEMENT_SET_NO = 999
REV_AT_EPOCH   = 448
BSTAR          = -.31004354E-1
MEAN_MOTION_DOT = -.170455E-1
MEAN_MOTION_DDOT = 0

